NORAD_CAT_ID,OBJECT_NAME,OBJECT_TYPE,EPOCH,MEAN_MOTION,ECCENTRICITY,INCLINATION,RA_OF_ASC_NODE,ARG_OF_PERICENTER,MEAN_ANOMALY,BSTAR,MEAN_MOTION_DOT,MEAN_MOTION_DDOT,TLE_LINE0,TLE_LINE1,TLE_LINE2,SEMIMAJOR_AXIS,PERIOD,APOGEE,PERIGEE,DECAYED
55318.0,STARLINK-5180,PAYLOAD,2024-04-07 21:59:53,14.983271,0.0003094,69.9986,331.3383,270.2662,89.8143,-4.6543e-05,-6.48e-06,0.0,0 STARLINK-5180,1 55318U 23010BB  24098.91659081 -.00000648  00000-0 -46543-4 0  9996,2 55318  69.9986 331.3383 0003094 270.2662  89.8143 14.98327100 69672,6950.202,96.107,574.217,569.916,0.0
55318.0,STARLINK-5180,PAYLOAD,2024-04-08 09:12:49,14.98331757,0.0002993,69.9989,330.1593,267.9793,92.1024,-3.5655e-05,-5.18e-06,0.0,0 STARLINK-5180,1 55318U 23010BB  24099.38390835 -.00000518  00000-0 -35655-4 0  9995,2 55318  69.9989 330.1593 0002993 267.9793  92.1024 14.98331757 68554,6950.187,96.107,574.133,569.972,0.0
55318.0,STARLINK-5180,PAYLOAD,2024-04-08 23:38:02,14.98325065,0.0003091,69.9986,328.6447,270.7773,89.3032,1.8017e-05,1.22e-06,0.0,0 STARLINK-5180,1 55318U 23010BB  24099.98475229  .00000122  00000-0  18017-4 0  9994,2 55318  69.9986 328.6447 0003091 270.7773  89.3032 14.98325065 69835,6950.208,96.107,574.221,569.925,0.0
55318.0,STARLINK-5180,PAYLOAD,2024-04-09 01:14:10,14.98325781,0.0003079,69.9987,328.4763,270.7601,89.3205,2.8051e-05,2.42e-06,0.0,0 STARLINK-5180,1 55318U 23010BB  24100.05151179  .00000242  00000-0  28051-4 0  9992,2 55318  69.9987 328.4763 0003079 270.7601  89.3205 14.98325781 69849,6950.206,96.107,574.211,569.931,0.0
55318.0,STARLINK-5180,PAYLOAD,2024-04-09 22:03:54,14.9833535,0.0003145,69.9983,326.2881,270.2774,89.8025,8.6409e-05,9.38e-06,0.0,0 STARLINK-5180,1 55318U 23010BB  24100.91938386  .00000938  00000-0  86409-4 0  9993,2 55318  69.9983 326.2881 0003145 270.2774  89.8025 14.98335350 69974,6950.176,96.107,574.227,569.856,0.0
55318.0,STARLINK-5180,PAYLOAD,2024-04-10 01:16:10,14.98337172,0.0003099,69.9985,325.9513,270.5827,89.4977,0.00010506,1.161e-05,0.0,0 STARLINK-5180,1 55318U 23010BB  24101.05290185  .00001161  00000-0  10506-3 0  9990,2 55318  69.9985 325.9513 0003099 270.5827  89.4977 14.98337172 68801,6950.171,96.107,574.19,569.882,0.0
55318.0,STARLINK-5180,PAYLOAD,2024-04-10 07:40:43,14.98332215,0.0003049,69.9986,325.2778,270.9579,89.123,4.4279e-05,4.35e-06,0.0,0 STARLINK-5180,1 55318U 23010BB  24101.31994589  .00000435  00000-0  44279-4 0  9996,2 55318  69.9986 325.2778 0003049 270.9579  89.1230 14.98332215 68847,6950.186,96.107,574.17,569.932,0.0
55318.0,STARLINK-5180,PAYLOAD,2024-04-10 22:05:56,14.98328073,0.0003014,69.9984,323.7631,270.3534,89.728,-1.666e-05,-2.92e-06,0.0,0 STARLINK-5180,1 55318U 23010BB  24101.92079024 -.00000292  00000-0 -16660-4 0  9997,2 55318  69.9984 323.7631 0003014 270.3534  89.7280 14.98328073 70125,6950.199,96.107,574.159,569.969,0.0
55318.0,STARLINK-5180,PAYLOAD,2024-04-10 23:42:03,14.98382232,0.0002834,70.0001,323.595,264.1161,95.9675,-0.00085041,-0.00010239,0.0,0 STARLINK-5180,1 55318U 23010BB  24101.98754477 -.00010239  00000-0 -85041-3 0  9995,2 55318  70.0001 323.5950 0002834 264.1161  95.9675 14.98382232 68947,6950.031,96.104,573.866,569.927,0.0
55318.0,STARLINK-5180,PAYLOAD,2024-04-11 07:42:44,14.98358095,0.0002791,69.9996,322.7531,266.7293,93.3547,-0.00051866,-6.28e-05,0.0,0 STARLINK-5180,1 55318U 23010BB  24102.32134355 -.00006280  00000-0 -51866-3 0  9990,2 55318  69.9996 322.7531 0002791 266.7293  93.3547 14.98358095 68994,6950.106,96.105,573.911,570.031,0.0
55318.0,STARLINK-5180,PAYLOAD,2024-04-11 20:31:50,14.98313138,0.0003366,69.9972,321.4057,269.038,91.0393,-0.00022036,-2.72e-05,0.0,0 STARLINK-5180,1 55318U 23010BB  24102.85544873 -.00002720  00000-0 -22036-3 0  9990,2 55318  69.9972 321.4057 0003366 269.0380  91.0393 14.98313138 69072,6950.245,96.108,574.449,569.771,0.0
55318.0,STARLINK-5180,PAYLOAD,2024-04-11 22:07:58,14.98317028,0.0002996,69.9993,321.2376,268.6877,91.3939,-0.00014855,-1.864e-05,0.0,0 STARLINK-5180,1 55318U 23010BB  24102.92220522 -.00001864  00000-0 -14855-3 0  9998,2 55318  69.9993 321.2376 0002996 268.6877  91.3939 14.98317028 70276,6950.233,96.108,574.18,570.016,0.0
55318.0,STARLINK-5180,PAYLOAD,2024-04-11 23:44:06,14.98316716,0.0003004,69.9992,321.0698,268.6331,91.4484,-0.00013962,-1.758e-05,0.0,0 STARLINK-5180,1 55318U 23010BB  24102.98896564 -.00001758  00000-0 -13962-3 0  9999,2 55318  69.9992 321.0698 0003004 268.6331  91.4484 14.98316716 69093,6950.234,96.108,574.187,570.011,0.0
55318.0,STARLINK-5180,PAYLOAD,2024-04-12 22:09:59,14.98325322,0.0002933,69.9979,318.7126,284.7217,75.3616,-3.2187e-05,-4.77e-06,0.0,0 STARLINK-5180,1 55318U 23010BB  24103.92360533 -.00000477  00000-0 -32187-4 0  9994,2 55318  69.9979 318.7126 0002933 284.7217  75.3616 14.98325322 70429,6950.207,96.107,574.111,570.034,0.0
55318.0,STARLINK-5180,PAYLOAD,2024-04-12 23:46:07,14.9833078,0.0003228,69.9981,318.5444,260.964,99.1154,-4.901e-05,-6.78e-06,0.0,0 STARLINK-5180,1 55318U 23010BB  24103.99035904 -.00000678  00000-0 -49010-4 0  9998,2 55318  69.9981 318.5444 0003228 260.9640  99.1154 14.98330780 69240,6950.19,96.107,574.299,569.812,0.0
55318.0,STARLINK-5180,PAYLOAD,2024-04-13 14:11:19,14.98312553,0.000357,69.9982,317.0299,268.194,91.881,0.00046213,5.423e-05,0.0,0 STARLINK-5180,1 55318U 23010BB  24104.59119724  .00005423  00000-0  46213-3 0  9990,2 55318  69.9982 317.0299 0003570 268.1940  91.8810 14.98312553 70525,6950.247,96.108,574.593,569.631,0.0
55318.0,STARLINK-5180,PAYLOAD,2024-04-13 20:35:51,14.98324447,0.0002877,69.9988,316.3565,256.0512,104.0327,0.00036089,4.215e-05,0.0,0 STARLINK-5180,1 55318U 23010BB  24104.85823525  .00004215  00000-0  36089-3 0  9998,2 55318  69.9988 316.3565 0002877 256.0512 104.0327 14.98324447 70568,6950.21,96.107,574.075,570.075,0.0
55318.0,STARLINK-5180,PAYLOAD,2024-04-13 23:48:07,14.98326329,0.0002882,69.9988,316.0195,260.8191,99.2642,0.00038943,4.556e-05,0.0,0 STARLINK-5180,1 55318U 23010BB  24104.99175372  .00004556  00000-0  38943-3 0  9992,2 55318  69.9988 316.0195 0002882 260.8191  99.2642 14.98326329 69391,6950.204,96.107,574.072,570.066,0.0
55318.0,STARLINK-5180,PAYLOAD,2024-04-14 20:37:51,14.98360606,0.0003127,69.9987,313.8318,263.3818,96.6985,-0.00019793,-2.456e-05,0.0,0 STARLINK-5180,1 55318U 23010BB  24105.85962557 -.00002456  00000-0 -19793-3 0  9998,2 55318  69.9987 313.8318 0003127 263.3818  96.6985 14.98360606 69521,6950.098,96.105,574.137,569.79,0.0
55318.0,STARLINK-5180,PAYLOAD,2024-04-14 22:13:59,14.98342066,0.000306,69.9987,313.6635,264.9288,95.1521,0.00010897,1.208e-05,0.0,0 STARLINK-5180,1 55318U 23010BB  24105.92638490  .00001208  00000-0  10897-3 0  9990,2 55318  69.9987 313.6635 0003060 264.9288  95.1521 14.98342066 70729,6950.156,96.106,574.147,569.894,0.0
55318.0,STARLINK-5180,PAYLOAD,2024-04-14 23:50:07,14.98342809,0.0003043,69.9987,313.4954,265.8924,94.1888,0.00011087,1.231e-05,0.0,0 STARLINK-5180,1 55318U 23010BB  24105.99314397  .00001231  00000-0  11087-3 0  9992,2 55318  69.9987 313.4954 0003043 265.8924  94.1888 14.98342809 69547,6950.153,96.106,574.133,569.903,0.0
55318.0,STARLINK-5180,PAYLOAD,2024-04-15 12:39:11,14.98387016,0.0002513,69.999,312.1492,265.676,94.4112,-0.00070732,-8.535e-05,0.0,0 STARLINK-5180,1 55318U 23010BB  24106.52722086 -.00008535  00000-0 -70732-3 0  9998,2 55318  69.9990 312.1492 0002513 265.6760  94.4112 14.98387016 69622,6950.017,96.103,573.628,570.135,0.0
55318.0,STARLINK-5180,PAYLOAD,2024-04-15 14:15:20,14.98381849,0.0002571,69.999,311.9792,268.4521,91.6343,-0.00069162,-8.346e-05,0.0,0 STARLINK-5180,1 55318U 23010BB  24106.59398159 -.00008346  00000-0 -69162-3 0  9990,2 55318  69.9990 311.9792 0002571 268.4521  91.6343 14.98381849 70829,6950.033,96.104,573.684,570.111,0.0
55318.0,STARLINK-5180,PAYLOAD,2024-04-15 20:39:52,14.98361386,0.0002524,69.999,311.3064,269.0488,91.0382,-0.00044292,-5.378e-05,0.0,0 STARLINK-5180,1 55318U 23010BB  24106.86102077 -.00005378  00000-0 -44292-3 0  9991,2 55318  69.9990 311.3064 0002524 269.0488  91.0382 14.98361386 69674,6950.096,96.105,573.715,570.207,0.0
55318.0,STARLINK-5180,PAYLOAD,2024-04-15 23:52:08,14.98338845,0.0002938,69.9988,310.9701,265.0955,94.9869,-7.1077e-05,-9.41e-06,0.0,0 STARLINK-5180,1 55318U 23010BB  24106.99454398 -.00000941  00000-0 -71077-4 0  9994,2 55318  69.9988 310.9701 0002938 265.0955  94.9869 14.98338845 69696,6950.166,96.106,574.072,569.989,0.0
55318.0,STARLINK-5180,PAYLOAD,2024-04-16 14:17:20,14.98337327,0.0002966,69.9987,309.4541,270.6353,89.4466,-5.2959e-05,-7.25e-06,0.0,0 STARLINK-5180,1 55318U 23010BB  24107.59538170 -.00000725  00000-0 -52959-4 0  9990,2 55318  69.9987 309.4541 0002966 270.6353  89.4466 14.98337327 70974,6950.17,96.107,574.097,569.974,0.0
55318.0,STARLINK-5180,PAYLOAD,2024-04-16 22:18:00,14.98340624,0.0002892,69.9985,308.6127,268.9573,91.1255,-6.5705e-06,-1.71e-06,0.0,0 STARLINK-5180,1 55318U 23010BB  24107.92917653 -.00000171  00000-0 -65705-5 0  9993,2 55318  69.9985 308.6127 0002892 268.9573  91.1255 14.98340624 71022,6950.16,96.106,574.035,570.015,0.0
55318.0,STARLINK-5180,PAYLOAD,2024-04-16 23:54:08,14.98340782,0.000289,69.9985,308.4443,269.2102,90.8726,-3.8468e-06,-1.39e-06,0.0,0 STARLINK-5180,1 55318U 23010BB  24107.99593596 -.00000139  00000-0 -38468-5 0  9996,2 55318  69.9985 308.4443 0002890 269.2102  90.8726 14.98340782 69842,6950.16,96.106,574.033,570.016,0.0
55318.0,STARLINK-5180,PAYLOAD,2024-04-17 14:19:22,14.98327249,0.000293,69.9981,306.9275,269.647,90.4354,-4.4696e-05,-6.26e-06,0.0,0 STARLINK-5180,1 55318U 23010BB  24108.59678454 -.00000626  00000-0 -44696-4 0  9990,2 55318  69.9981 306.9275 0002930 269.6470  90.4354 14.98327249 71121,6950.201,96.107,574.103,570.03,0.0
55318.0,STARLINK-5180,PAYLOAD,2024-04-17 19:07:46,14.98322542,0.0002845,69.9983,306.424,263.7147,96.3688,-7.7866e-05,-1.022e-05,0.0,0 STARLINK-5180,1 55318U 23010BB  24108.79706865 -.00001022  00000-0 -77866-4 0  9996,2 55318  69.9983 306.4240 0002845 263.7147  96.3688 14.98322542 69966,6950.216,96.107,574.058,570.104,0.0
